company_name,address,city,state,zip,phone,website,email,services
Alabama Spray Foam LLC,7901 Woodside Dr E,Mobile,AL,36695,251-654-7963,https://alabamasprayfoam.com,contact@alabamasprayfoam.com,Spray Foam Insulation
A to Z Insulation LLC,N2698 County Road E,Waupaca,WI,54981,715-258-8200,https://atozinsulationllc.com,info@atozinsulationllc.com,Insulation Services
EDI Insulation LLC,9091 85th Ave N,Brooklyn Park,MN,55445,763-424-0010,https://ediinsulation.com,info@ediinsulation.com,Insulation Services
Pearsons Spray Foam Insulation LLC,W5761 State Road 23,Montello,WI,53949,920-250-4521,https://pearsonsinsulation.com,pearsonsinsulation@gmail.com,Spray Foam Insulation
Top Notch Insulating Inc,11861 34th St SW,Dickinson,ND,58601,701-483-5024,https://topnotchinsulating.com,travis@topnotchinsulating.com,Insulation Services
R&R Pro Spray Foam LLC,1002 Plateau Ave,Lakeland,FL,33815,863-808-3121,https://rrprosprayfoam.com,info@rrprosprayfoam.com,Spray Foam Insulation
Home Sweet Foam Insulation LLC,15315 Court Amber Trl,Cypress,TX,77433,832-224-2337,https://homesweetfoam.com,info@homesweetfoam.com,Spray Foam Insulation
M3 Insulation LLC,400 E 3rd St,Rochester,MI,48307,248-773-5512,https://m3insulation.com,info@m3insulation.com,Insulation Services
Jackson Spray Foam Insulation LLC,15 Lasalle Cove,Jackson,TN,38305,731-217-4383,https://jacksonsprayfoam.com,sales@jacksonsprayfoam.com,Spray Foam Insulation
Big Dog Insulation LLC,7650 E Division St,Evansville,IN,47715,812-760-6331,https://bigdoginsulation.com,austin@bigdoginsulation.com,Insulation Services
Spray Tex Insulation LLC,411 N Star Rd,Canton,TX,75103,903-220-4318,https://spraytexinsulation.com,chris@spraytexinsulation.com,Spray Foam Insulation
Advanced Roofing and Insulation LLC,9608 S Kent Rd,Yoder,KS,67585,620-899-3165,https://advancedroofingandinsulation.com,advancedroofingandinsulation@gmail.com,Spray Foam Insulation & SPF Roofing
The Right R Value LLC,1113 US Route 5,West Burke,VT,05871,802-535-4420,https://therightrvalue.com,rightrvalue@gmail.com,Insulation Services
Castle Foam LLC,2286 Gathering Way,Prattville,AL,36066,334-450-1305,https://castlefoam.com,jarrod@castlefoam.com,Spray Foam Insulation
Brazos Valley Insulators LLC,301 Duke St Suite A,Navasota,TX,77868,936-727-7122,https://brazosvalley-insulators.com,,Spray Foam Insulation
M&J's Spray Foam Insulation Solutions,85 North 400 West,Winamac,IN,46996,574-242-0463,https://mandjssprayfoam.com,mandjssprayfoam@gmail.com,Spray Foam Insulation
Insul-Maxx Spray Foam & Coatings LLC,127 Cedar Point Dr,Mooresville,NC,28117,704-360-9270,https://insulmaxxspf.com,,Spray Foam Insulation & Coatings
Acer Foam Insulation LLC,9448 Date Rd,Baroda,MI,49101,231-923-6737,https://acerinsulation.com,,Spray Foam Insulation
Texas Foam Insulators,111 N Holland St,Willis,TX,77378,281-849-3626,https://texasfoaminsulators.com,sales@texasfoaminsulators.com,Spray Foam Insulation
Frontier Foam Insulation,13344 Hwy 75 North,Willis,TX,77378,936-228-5060,,,Spray Foam Insulation
Five Star Foam,4112 W 15th St Ste 207,Plano,TX,75093,,https://fivestarfoam.com,,Spray Foam Insulation
Five Star Pro Foam Insulation,1709 Hazelwood Dr SE,Marietta,GA,30067,770-820-2704,https://fsprofoam.com,,Spray Foam Insulation
Rock-Crete Foam Insulators,28555 Pleasant Grove Rd,North Zulch,TX,77872,979-229-3493,https://rock-crete.com,info@rock-cretefoam.com,Spray Foam Insulation & Roofing
Allstate Spray Foam Insulation,125 W Oak View Dr,Visalia,CA,93291,559-648-8508,https://allstatesprayfoam.com,,Spray Foam Insulation
Two Dogs Spray Foam LLC,5291 Kiger Rd,Rougemont,NC,27572,919-884-9987,https://twodogssprayfoam.com,,Spray Foam Insulation
Evolution Sprayfoam LLC,,Trenton,MO,,660-635-0147,https://evolutionsprayfoam.com,,Spray Foam Insulation
Epic Spray Foam LLC,7181 Vaughn Rd,Canton,GA,30115,833-362-6489,https://epicsprayfoam.com,,Spray Foam Insulation
Foam It Insulation,,Binghamton,NY,,607-821-0519,https://foamitinsulation.com,,Spray Foam Insulation
Spray Foam NW LLC,310 Broadway Ave,South Bend,WA,98586,360-942-7847,https://sprayfoamnorthwest.com,,Spray Foam Insulation & Roofing
JT's Spray Foam Solutions LLC,950 Sugar Lake Road,Pittsboro,NC,27312,919-368-0642,https://jtssprayfoamsolutions.com,,Spray Foam Insulation
Foamaholics LLC,,Prattville,AL,36066,,https://foamaholicsllc.com,,Spray Foam Insulation
Kirby's Spray Foam Insulation Inc,,Kelly,LA,71441,318-680-7402,https://kirbyssprayfoaminsulation.com,,Spray Foam Insulation
Midwest Spray Foam,,Midland,MI,,989-891-7235,https://midwestsprayfoaminsulation.com,MIDWESTSFI@GMAIL.COM,Spray Foam Insulation
North Mississippi Spray Foam LLC,,Grenada,MS,38901,662-699-9867,https://northmsfoam.com,,Spray Foam Insulation & Roofing
3A Foam Specialists LLC,102 Maple Street,Paradise,TX,76073,817-771-8086,https://3afoam.com,,Spray Foam Insulation & Roofing
Insutech LLC,,Melbourne,FL,32940,305-877-0013,,,Insulation Services
Super Seal Spray Foam,,,NY/NJ/CT,,,https://superseal-sprayfoam.com,,Spray Foam Insulation
Mountain States Sprayfoam,,Northwest Montana,MT,,660-635-0147,https://insulatemontana.com,,Spray Foam Insulation
